NORAD_CAT_ID,OBJECT_NAME,OBJECT_TYPE,EPOCH,MEAN_MOTION,ECCENTRICITY,INCLINATION,RA_OF_ASC_NODE,ARG_OF_PERICENTER,MEAN_ANOMALY,BSTAR,MEAN_MOTION_DOT,MEAN_MOTION_DDOT,TLE_LINE0,TLE_LINE1,TLE_LINE2,SEMIMAJOR_AXIS,PERIOD,APOGEE,PERIGEE,DECAYED
52997.0,STARLINK-4301,PAYLOAD,2023-05-01 22:39:56,15.18098284,0.0006913,53.2177,91.1461,61.4267,298.7425,0.00038308,7.6e-05,0.0,0 STARLINK-4301,1 52997U 22076M   23121.94439904  .00007600  00000-0  38308-3 0  9998,2 52997  53.2177  91.1461 0006913  61.4267 298.7425 15.18098284 45952,6889.725,94.856,516.353,506.828,0.0
52997.0,STARLINK-4301,PAYLOAD,2023-05-02 06:33:56,15.18113028,0.0006454,53.2179,89.6481,62.8296,297.3358,0.00059258,0.00011943,0.0,0 STARLINK-4301,1 52997U 22076M   23122.27357401  .00011943  00000-0  59258-3 0  9998,2 52997  53.2179  89.6481 0006454  62.8296 297.3358 15.18113028 46006,6889.681,94.855,515.992,507.099,0.0
52997.0,STARLINK-4301,PAYLOAD,2023-05-03 04:41:09,15.18158714,0.0006353,53.2176,85.4518,65.6575,294.5084,0.00082156,0.00016714,0.0,0 STARLINK-4301,1 52997U 22076M   23123.19524400  .00016714  00000-0  82156-3 0  9999,2 52997  53.2176  85.4518 0006353  65.6575 294.5084 15.18158714 46148,6889.543,94.852,515.785,507.031,0.0
52997.0,STARLINK-4301,PAYLOAD,2023-05-03 06:15:56,15.18167968,0.0006392,53.2176,85.1512,65.4314,294.7347,0.00097835,0.00019979,0.0,0 STARLINK-4301,1 52997U 22076M   23123.26107620  .00019979  00000-0  97835-3 0  9994,2 52997  53.2176  85.1512 0006392  65.4314 294.7347 15.18167968 45684,6889.515,94.851,515.783,506.976,0.0
52997.0,STARLINK-4301,PAYLOAD,2023-05-03 20:29:07,15.18200208,0.0006369,53.2176,82.453,67.4616,292.7054,0.0011147,0.00022839,0.0,0 STARLINK-4301,1 52997U 22076M   23123.85356248  .00022839  00000-0  11147-2 0  9991,2 52997  53.2176  82.4530 0006369  67.4616 292.7054 15.18200208 45773,6889.417,94.849,515.67,506.894,0.0
52997.0,STARLINK-4301,PAYLOAD,2023-05-04 04:23:06,15.1821899,0.0006339,53.2174,80.9543,68.4842,291.6829,0.0011703,0.00024011,0.0,0 STARLINK-4301,1 52997U 22076M   23124.18271590  .00024011  00000-0  11703-2 0  9996,2 52997  53.2174  80.9543 0006339  68.4842 291.6829 15.18218990 46290,6889.36,94.848,515.592,506.858,0.0
52997.0,STARLINK-4301,PAYLOAD,2023-05-04 05:57:54,15.18222779,0.0006344,53.2174,80.6545,68.5611,291.6061,0.0011793,0.00024201,0.0,0 STARLINK-4301,1 52997U 22076M   23124.24854617  .00024201  00000-0  11793-2 0  9990,2 52997  53.2174  80.6545 0006344  68.5611 291.6061 15.18222779 45837,6889.349,94.848,515.584,506.843,0.0
52997.0,STARLINK-4301,PAYLOAD,2023-05-04 17:01:28,15.18249848,0.0006277,53.2173,78.5553,70.6493,289.5182,0.0012802,0.00026327,0.0,0 STARLINK-4301,1 52997U 22076M   23124.70935345  .00026327  00000-0  12802-2 0  9992,2 52997  53.2173  78.5553 0006277  70.6493 289.5182 15.18249848 45902,6889.267,94.846,515.456,506.808,0.0
52997.0,STARLINK-4301,PAYLOAD,2023-05-05 05:39:48,15.1828163,0.0006266,53.2172,76.1572,71.8416,288.3262,0.0013179,0.0002714,0.0,0 STARLINK-4301,1 52997U 22076M   23125.23598004  .00027140  00000-0  13179-2 0  9990,2 52997  53.2172  76.1572 0006266  71.8416 288.3262 15.18281630 46454,6889.171,94.844,515.353,506.719,0.0
52997.0,STARLINK-4301,PAYLOAD,2023-05-05 21:27:43,15.18320309,0.0006233,53.2171,73.1586,74.3959,285.7724,0.0014012,0.00028915,0.0,0 STARLINK-4301,1 52997U 22076M   23125.89424909  .00028915  00000-0  14012-2 0  9992,2 52997  53.2171  73.1586 0006233  74.3959 285.7724 15.18320309 46089,6889.054,94.842,515.213,506.625,0.0
52997.0,STARLINK-4301,PAYLOAD,2023-05-06 03:46:52,15.18338356,0.0006229,53.217,71.9597,75.0274,285.1411,0.0016321,0.00033773,0.0,0 STARLINK-4301,1 52997U 22076M   23126.15755190  .00033773  00000-0  16321-2 0  9994,2 52997  53.2170  71.9597 0006229  75.0274 285.1411 15.18338356 46122,6888.999,94.841,515.155,506.573,0.0
52997.0,STARLINK-4301,PAYLOAD,2023-05-07 01:53:52,15.18414934,0.0006194,53.2168,67.7617,78.0974,282.0716,0.0019418,0.00040368,0.0,0 STARLINK-4301,1 52997U 22076M   23127.07908138  .00040368  00000-0  19418-2 0  9996,2 52997  53.2168  67.7617 0006194  78.0974 282.0716 15.18414934 46734,6888.768,94.836,514.899,506.366,0.0
52997.0,STARLINK-4301,PAYLOAD,2023-05-07 03:28:39,15.18413136,0.0006188,53.2168,67.462,78.1973,281.9717,0.0015644,0.00032423,0.0,0 STARLINK-4301,1 52997U 22076M   23127.14490366  .00032423  00000-0  15644-2 0  9993,2 52997  53.2168  67.4620 0006188  78.1973 281.9717 15.18413136 46279,6888.773,94.836,514.901,506.375,0.0
52997.0,STARLINK-4301,PAYLOAD,2023-05-08 03:10:22,15.18490916,0.0006137,53.2166,62.9636,82.1745,277.9948,0.0018001,0.00037466,0.0,0 STARLINK-4301,1 52997U 22076M   23128.13220650  .00037466  00000-0  18001-2 0  9992,2 52997  53.2166  62.9636 0006137  82.1745 277.9948 15.18490916 46890,6888.538,94.831,514.63,506.175,0.0
52997.0,STARLINK-4301,PAYLOAD,2023-05-08 18:58:08,15.18547484,0.0006116,53.2163,59.9652,83.8705,276.2988,0.0020252,0.00042288,0.0,0 STARLINK-4301,1 52997U 22076M   23128.79038063  .00042288  00000-0  20252-2 0  9998,2 52997  53.2163  59.9652 0006116  83.8705 276.2988 15.18547484 46521,6888.367,94.827,514.445,506.019,0.0
52997.0,STARLINK-4301,PAYLOAD,2023-05-09 02:52:01,15.18576553,0.000611,53.2162,58.4657,84.8605,275.3089,0.0021708,0.00045409,0.0,0 STARLINK-4301,1 52997U 22076M   23129.11945869  .00045409  00000-0  21708-2 0  9991,2 52997  53.2162  58.4657 0006110  84.8605 275.3089 15.18576553 46579,6888.279,94.826,514.353,505.935,0.0
52997.0,STARLINK-4301,PAYLOAD,2023-05-10 02:33:35,15.18655163,0.0006044,53.2158,53.9671,87.8733,272.2955,0.0019762,0.00041381,0.0,0 STARLINK-4301,1 52997U 22076M   23130.10665680  .00041381  00000-0  19762-2 0  9994,2 52997  53.2158  53.9671 0006044  87.8733 272.2955 15.18655163 46721,6888.041,94.821,514.069,505.743,0.0
52997.0,STARLINK-4301,PAYLOAD,2023-05-11 02:15:06,15.18690062,0.0006054,53.2157,49.4673,89.7827,270.3864,0.0011587,0.00024097,0.0,0 STARLINK-4301,1 52997U 22076M   23131.09382205  .00024097  00000-0  11587-2 0  9994,2 52997  53.2157  49.4673 0006054  89.7827 270.3864 15.18690062 46879,6887.936,94.819,513.97,505.631,0.0
52997.0,STARLINK-4301,PAYLOAD,2023-05-12 00:21:49,15.18705163,0.0006085,53.2156,45.268,90.5822,269.5872,0.0007957,0.00016437,0.0,0 STARLINK-4301,1 52997U 22076M   23132.01516160  .00016437  00000-0  79570-3 0  9992,2 52997  53.2156  45.2680 0006085  90.5822 269.5872 15.18705163 47485,6887.89,94.818,513.946,505.564,0.0
52997.0,STARLINK-4301,PAYLOAD,2023-05-12 01:56:35,15.18704598,0.0006049,53.2156,44.9678,91.8457,268.3232,0.00058963,0.0001209,0.0,0 STARLINK-4301,1 52997U 22076M   23132.08097072  .00012090  00000-0  58963-3 0  9999,2 52997  53.2156  44.9678 0006049  91.8457 268.3232 15.18704598 47024,6887.892,94.818,513.923,505.59,0.0
52997.0,STARLINK-4301,PAYLOAD,2023-05-13 00:03:18,15.18720447,0.0006047,53.2157,40.7678,93.8821,266.2866,0.00055911,0.00011452,0.0,0 STARLINK-4301,1 52997U 22076M   23133.00229909  .00011452  00000-0  55911-3 0  9999,2 52997  53.2157  40.7678 0006047  93.8821 266.2866 15.18720447 47632,6887.844,94.817,513.874,505.544,0.0
52997.0,STARLINK-4301,PAYLOAD,2023-05-13 01:38:04,15.18720722,0.0006062,53.2157,40.468,94.079,266.0899,0.00052626,0.00010759,0.0,0 STARLINK-4301,1 52997U 22076M   23133.06810791  .00010759  00000-0  52626-3 0  9999,2 52997  53.2157  40.4680 0006062  94.0790 266.0899 15.18720722 47176,6887.843,94.817,513.883,505.532,0.0
52997.0,STARLINK-4301,PAYLOAD,2023-05-13 23:44:46,15.18731935,0.0006095,53.2162,36.2695,95.3753,264.7939,0.00037314,7.534e-05,0.0,0 STARLINK-4301,1 52997U 22076M   23133.98942702  .00007534  00000-0  37314-3 0  9992,2 52997  53.2162  36.2695 0006095  95.3753 264.7939 15.18731935 47785,6887.809,94.816,513.872,505.476,0.0
52997.0,STARLINK-4301,PAYLOAD,2023-05-14 17:07:10,15.18743194,0.0006102,53.2165,32.9701,96.6724,263.4968,0.00035072,7.064e-05,0.0,0 STARLINK-4301,1 52997U 22076M   23134.71331384  .00007064  00000-0  35072-3 0  9999,2 52997  53.2165  32.9701 0006102  96.6724 263.4968 15.18743194 47429,6887.775,94.815,513.843,505.437,0.0
52997.0,STARLINK-4301,PAYLOAD,2023-05-15 02:35:45,15.1872118,0.0005876,53.2162,31.1766,88.3079,271.8591,-0.0002013,-4.55e-05,0.0,0 STARLINK-4301,1 52997U 22076M   23135.10816237 -.00004550  00000-0 -20130-3 0  9996,2 52997  53.2162  31.1766 0005876  88.3079 271.8591 15.18721180 47950,6887.841,94.817,513.754,505.659,0.0
52997.0,STARLINK-4301,PAYLOAD,2023-05-15 10:29:35,15.18716994,0.000616,53.2168,29.6698,97.953,262.2165,-0.00017588,-4.016e-05,0.0,0 STARLINK-4301,1 52997U 22076M   23135.43721403 -.00004016  00000-0 -17588-3 0  9992,2 52997  53.2168  29.6698 0006160  97.9530 262.2165 15.18716994 48002,6887.854,94.817,513.962,505.476,0.0
52997.0,STARLINK-4301,PAYLOAD,2023-05-15 16:48:38,15.18718784,0.0006115,53.2167,28.4697,98.8791,261.2898,-5.6024e-05,-1.498e-05,0.0,0 STARLINK-4301,1 52997U 22076M   23135.70045034 -.00001498  00000-0 -56024-4 0  9991,2 52997  53.2167  28.4697 0006115  98.8791 261.2898 15.18718784 47578,6887.849,94.817,513.926,505.502,0.0
52997.0,STARLINK-4301,PAYLOAD,2023-05-15 23:07:42,15.18716269,0.0005798,53.2151,27.2725,96.4582,263.7075,-5.5355e-05,-1.484e-05,0.0,0 STARLINK-4301,1 52997U 22076M   23135.96368670 -.00001484  00000-0 -55355-4 0  9994,2 52997  53.2151  27.2725 0005798  96.4582 263.7075 15.18716269 47613,6887.856,94.817,513.715,505.728,0.0
52997.0,STARLINK-4301,PAYLOAD,2023-05-16 16:30:07,15.18723197,0.0006127,53.2171,23.9704,101.5665,258.602,7.7743e-05,1.314e-05,0.0,0 STARLINK-4301,1 52997U 22076M   23136.68758335  .00001314  00000-0  77743-4 0  9990,2 52997  53.2171  23.9704 0006127 101.5665 258.6020 15.18723197 48197,6887.835,94.816,513.921,505.48,0.0
52997.0,STARLINK-4301,PAYLOAD,2023-05-17 19:21:06,15.18732111,0.0006042,53.2177,18.8713,102.7327,257.4345,0.00026995,5.36e-05,0.0,0 STARLINK-4301,1 52997U 22076M   23137.80632936  .00005360  00000-0  26995-3 0  9990,2 52997  53.2177  18.8713 0006042 102.7327 257.4345 15.18732111 48362,6887.808,94.816,513.835,505.512,0.0
